*******************************************************************************
 Revised: Jan 08, 2014           Caliban / (Uranus)                         716

           http://ssd.jpl.nasa.gov/sat_props.html  (physical properties)
           http://ssd.jpl.nasa.gov/sat_elem.html   (mean elements)

 SATELLITE PHYSICAL PROPERTIES:
  Radius (km)           = ~30               Density (g cm^-3)   =
  Mass (10^20 kg )      =                   Geometric Albedo    =   0.07 
                                            V(1,0)              =  

 SATELLITE ORBITAL DATA:
  Semi-major axis, a (km) =  71 (10^5)      Orbital period      =  580 days
  Eccentricity, e         =   0.08          Rotational period   = 
  Inclination, i  (deg)   = 137.6 (retro)
*******************************************************************************
 
 
*******************************************************************************
Ephemeris / WWW_USER Fri Jun 19 18:50:48 2020 Pasadena, USA      / Horizons
*******************************************************************************
Target body name: Caliban (716)                   {source: ura112}
Center body name: Solar System Barycenter (0)     {source: DE431mx}
Center-site name: BODY CENTER
*******************************************************************************
Start time      : A.D. 1982-Jan-31 00:00:00.0000 TDB
Stop  time      : A.D. 2052-Mar-04 00:00:00.0000 TDB
Step-size       : 7200 minutes
*******************************************************************************
Center geodetic : 0.00000000,0.00000000,0.0000000 {E-lon(deg),Lat(deg),Alt(km)}
Center cylindric: 0.00000000,0.00000000,0.0000000 {E-lon(deg),Dxy(km),Dz(km)}
Center radii    : (undefined)                                                  
Output units    : AU-D
Output type     : GEOMETRIC cartesian states
Output format   : 2 (position and velocity)
Reference frame : Ecliptic of J2000.0
*******************************************************************************
            JDTDB,            Calendar Date (TDB),        delta-T,                      X,                      Y,                      Z,                     VX,                     VY,                     VZ,
******************************************************************************************************************************************************************************************************************
$$SOE
2461975.500000000, A.D. 2028-Jul-23 00:00:00.0000,      69.183484,  6.485317456602059E+00,  1.818751534618399E+01, -1.388914345117711E-02, -3.653941348400901E-03,  1.565197977448289E-03,  4.147103167258055E-04,
2461980.500000000, A.D. 2028-Jul-28 00:00:00.0000,      69.183354,  6.467124870301699E+00,  1.819531794484678E+01, -1.182256507296837E-02, -3.623180077225677E-03,  1.555590842465988E-03,  4.117019966245358E-04,
2461985.500000000, A.D. 2028-Aug-02 00:00:00.0000,      69.183227,  6.449084673503422E+00,  1.820306878606332E+01, -9.774288591543213E-03, -3.593007983140742E-03,  1.544502846115305E-03,  4.073948530280005E-04,
2461990.500000000, A.D. 2028-Aug-07 00:00:00.0000,      69.183105,  6.431193589256639E+00,  1.821076058988012E+01, -7.750722687372633E-03, -3.563556398508843E-03,  1.531985058910829E-03,  4.018242630935645E-04,
2461995.500000000, A.D. 2028-Aug-12 00:00:00.0000,      69.182989,  6.413447700354327E+00,  1.821838635163383E+01, -5.758081119777834E-03, -3.534950093542366E-03,  1.518096526382401E-03,  3.950328181277545E-04,
2462000.500000000, A.D. 2028-Aug-17 00:00:00.0000,      69.182882,  6.395842483071422E+00,  1.822593938149230E+01, -3.802346882299900E-03, -3.507306206326601E-03,  1.502903739411254E-03,  3.870699392665181E-04,
2462005.500000000, A.D. 2028-Aug-22 00:00:00.0000,      69.182785,  6.378372857853172E+00,  1.823341332899244E+01, -1.889248101397941E-03, -3.480730386874660E-03,  1.486475556340035E-03,  3.779877819222548E-04,
2462010.500000000, A.D. 2028-Aug-27 00:00:00.0000,      69.182695,  6.361033235330651E+00,  1.824080220545271E+01, -2.423605811878810E-05, -3.455320558860180E-03,  1.468888477356092E-03,  3.678455044611659E-04,
2462015.500000000, A.D. 2028-Sep-01 00:00:00.0000,      69.182613,  6.343817562378741E+00,  1.824810041534881E+01,  1.787544473319222E-03, -3.431164330566385E-03,  1.450222413936684E-03,  3.567058219721512E-04,
2462020.500000000, A.D. 2028-Sep-06 00:00:00.0000,      69.182540,  6.326719372714229E+00,  1.825530276765448E+01,  3.541268062291957E-03, -3.408339356950042E-03,  1.430559253834060E-03,  3.446337568047425E-04,
2462025.500000000, A.D. 2028-Sep-11 00:00:00.0000,      69.182479,  6.309731836662431E+00,  1.826240448572293E+01,  5.232440158072429E-03, -3.386913339641461E-03,  1.409982861075463E-03,  3.316966385691046E-04,
2462030.500000000, A.D. 2028-Sep-16 00:00:00.0000,      69.182429,  6.292847810923833E+00,  1.826940121716819E+01,  6.856908626140107E-03, -3.366944026944497E-03,  1.388579075963128E-03,  3.179641041360344E-04,
2462035.500000000, A.D. 2028-Sep-21 00:00:00.0000,      69.182393,  6.276059888400618E+00,  1.827628904363906E+01,  8.410875197636740E-03, -3.348479113253270E-03,  1.366435462935699E-03,  3.035078909475453E-04,
2462040.500000000, A.D. 2028-Sep-26 00:00:00.0000,      69.182367,  6.259360446734524E+00,  1.828306447967139E+01,  9.890897557613736E-03, -3.331557625678215E-03,  1.343636927862836E-03,  2.883980165665144E-04,
2462045.500000000, A.D. 2028-Oct-01 00:00:00.0000,      69.182352,  6.242741690201534E+00,  1.828972446450580E+01,  1.129388494986493E-02, -3.316209060523055E-03,  1.320269268828630E-03,  2.727058437689467E-04,
2462050.500000000, A.D. 2028-Oct-06 00:00:00.0000,      69.182348,  6.226195700255927E+00,  1.829626636487763E+01,  1.261710372213240E-02, -3.302453776426397E-03,  1.296417043741545E-03,  2.565022567150455E-04,
2462055.500000000, A.D. 2028-Oct-11 00:00:00.0000,      69.182356,  6.209714474780912E+00,  1.830268796454955E+01,  1.385817086640737E-02, -3.290304843182375E-03,  1.272162505628309E-03,  2.398566289418714E-04,
2462060.500000000, A.D. 2028-Oct-16 00:00:00.0000,      69.182379,  6.193289964532831E+00,  1.830898745278716E+01,  1.501504646579860E-02, -3.279768041740647E-03,  1.247585602633910E-03,  2.228368233633435E-04,
2462065.500000000, A.D. 2028-Oct-21 00:00:00.0000,      69.182415,  6.176914109585390E+00,  1.831516341283458E+01,  1.608602614143745E-02, -3.270841864206392E-03,  1.222763978021601E-03,  2.055091922702561E-04,
2462070.500000000, A.D. 2028-Oct-26 00:00:00.0000,      69.182461,  6.160578875773884E+00,  1.832121481039004E+01,  1.706973349934630E-02, -3.263517513840355E-03,  1.197772970171546E-03,  1.879385773306441E-04,
2462075.500000000, A.D. 2028-Oct-31 00:00:00.0000,      69.182518,  6.144276286476114E+00,  1.832714097910848E+01,  1.796510974708912E-02, -3.257781719025834E-03,  1.172684026362192E-03,  1.701867802868187E-04,
2462080.500000000, A.D. 2028-Nov-05 00:00:00.0000,      69.182585,  6.127998441788315E+00,  1.833294160213250E+01,  1.877139915553509E-02, -3.253615891050755E-03,  1.147565857257145E-03,  1.523136061136166E-04,
2462085.500000000, A.D. 2028-Nov-10 00:00:00.0000,      69.182664,  6.111737551316975E+00,  1.833861669799340E+01,  1.948813907850683E-02, -3.250995701907964E-03,  1.122483762954240E-03,  1.343763049884503E-04,
2462090.500000000, A.D. 2028-Nov-15 00:00:00.0000,      69.182754,  6.095485954584614E+00,  1.834416660327771E+01,  2.011514643658065E-02, -3.249893513191182E-03,  1.097499665443737E-03,  1.164294534381784E-04,
2462095.500000000, A.D. 2028-Nov-20 00:00:00.0000,      69.182855,  6.079236137581784E+00,  1.834959195573663E+01,  2.065250434884619E-02, -3.250278376094995E-03,  1.072672108608331E-03,  9.852495433910761E-05,
2462100.500000000, A.D. 2028-Nov-25 00:00:00.0000,      69.182963,  6.062980749319061E+00,  1.835489367739554E+01,  2.110054876463822E-02, -3.252116031414651E-03,  1.048056258223987E-03,  8.071203691679946E-05,
2462105.500000000, A.D. 2028-Nov-30 00:00:00.0000,      69.183078,  6.046712618379040E+00,  1.836007295766341E+01,  2.145985509530110E-02, -3.255368909545997E-03,  1.023703901959359E-03,  6.303725674606657E-05,
2462110.500000000, A.D. 2028-Dec-05 00:00:00.0000,      69.183199,  6.030424767329677E+00,  1.836513123645318E+01,  2.173122470949574E-02, -3.259997621068364E-03,  9.996635248091345E-04,  4.554446038581374E-05,
2462115.500000000, A.D. 2028-Dec-10 00:00:00.0000,      69.183327,  6.014110416605617E+00,  1.837007018903742E+01,  2.191567224588028E-02, -3.265961648041723E-03,  9.759806944623946E-04,  2.827508275541032E-05,
2462120.500000000, A.D. 2028-Dec-15 00:00:00.0000,      69.183463,  5.997762997164671E+00,  1.837489170961247E+01,  2.201441241329197E-02, -3.273217861840373E-03,  9.526975031023791E-04,  1.126775574837767E-05,
2462125.500000000, A.D. 2028-Dec-20 00:00:00.0000,      69.183602,  5.981376157360648E+00,  1.837959789585760E+01,  2.202884723104625E-02, -3.281722427650468E-03,  9.298532954266128E-04, -5.441189771397367E-06,
2462130.500000000, A.D. 2028-Dec-25 00:00:00.0000,      69.183744,  5.964943766516017E+00,  1.838419103543994E+01,  2.196055473856546E-02, -3.291430792822295E-03,  9.074847218603693E-04, -2.181767662235530E-05,
2462135.500000000, A.D. 2028-Dec-30 00:00:00.0000,      69.183887,  5.948459918511086E+00,  1.838867359254300E+01,  2.181127772697307E-02, -3.302297686870312E-03,  8.856257385556795E-04, -3.782988130519070E-05,
2462140.500000000, A.D. 2029-Jan-04 00:00:00.0000,      69.184029,  5.931918935373177E+00,  1.839304819439542E+01,  2.158291247069119E-02, -3.314277121473022E-03,  8.643076073933695E-04, -5.344823400275738E-05,
2462145.500000000, A.D. 2029-Jan-09 00:00:00.0000,      69.184173,  5.915315370346424E+00,  1.839731761804955E+01,  2.127749764341180E-02, -3.327322833132728E-03,  8.435591434837463E-04, -6.864523294110335E-05,
